NORAD_CAT_ID,OBJECT_NAME,OBJECT_TYPE,EPOCH,MEAN_MOTION,ECCENTRICITY,INCLINATION,RA_OF_ASC_NODE,ARG_OF_PERICENTER,MEAN_ANOMALY,BSTAR,MEAN_MOTION_DOT,MEAN_MOTION_DDOT,TLE_LINE0,TLE_LINE1,TLE_LINE2,SEMIMAJOR_AXIS,PERIOD,APOGEE,PERIGEE,DECAYED
52100.0,STARLINK-3702,PAYLOAD,2023-02-23 09:53:51,15.0884942,0.0001241,53.216,33.354,114.2565,245.8557,0.00101,0.00015827,0.0,0 STARLINK-3702,1 52100U 22029N   23054.41240684  .00015827  00000-0  10100-2 0  9993,2 52100  53.2160  33.3540 0001241 114.2565 245.8557 15.08849420 53046,6917.852,95.437,540.575,538.858,0.0
52100.0,STARLINK-3702,PAYLOAD,2023-02-24 00:12:19,15.08872853,0.0001314,53.216,30.6776,119.9809,240.1314,0.0013108,0.00020654,0.0,0 STARLINK-3702,1 52100U 22029N   23055.00855858  .00020654  00000-0  13108-2 0  9999,2 52100  53.2160  30.6776 0001314 119.9809 240.1314 15.08872853 53136,6917.78,95.435,540.554,538.736,0.0
52100.0,STARLINK-3702,PAYLOAD,2023-02-24 04:58:29,15.08865627,0.0001132,53.2164,29.7868,100.5891,259.5229,0.0012744,0.00020066,0.0,0 STARLINK-3702,1 52100U 22029N   23055.20728561  .00020066  00000-0  12744-2 0  9993,2 52100  53.2164  29.7868 0001132 100.5891 259.5229 15.08865627 53169,6917.802,95.436,540.45,538.884,0.0
52100.0,STARLINK-3702,PAYLOAD,2023-02-24 09:44:38,15.08872005,0.0001133,53.2164,28.8954,93.0528,267.0594,0.0016026,0.00025332,0.0,0 STARLINK-3702,1 52100U 22029N   23055.40600295  .00025332  00000-0  16026-2 0  9996,2 52100  53.2164  28.8954 0001133  93.0528 267.0594 15.08872005 53199,6917.783,95.436,540.431,538.864,0.0
52100.0,STARLINK-3702,PAYLOAD,2023-02-24 22:27:44,15.0883185,0.0001482,53.2169,26.5144,103.0959,257.0198,0.00057063,8.803e-05,0.0,0 STARLINK-3702,1 52100U 22029N   23055.93593007  .00008803  00000-0  57063-3 0  9997,2 52100  53.2169  26.5144 0001482 103.0959 257.0198 15.08831850 53278,6917.905,95.438,540.796,538.745,0.0
52100.0,STARLINK-3702,PAYLOAD,2023-02-25 04:49:16,15.08841776,0.0001049,53.2166,25.3278,112.0061,248.1043,0.0013956,0.00021994,0.0,0 STARLINK-3702,1 52100U 22029N   23056.20088985  .00021994  00000-0  13956-2 0  9990,2 52100  53.2166  25.3278 0001049 112.0061 248.1043 15.08841776 53316,6917.875,95.437,540.466,539.014,0.0
52100.0,STARLINK-3702,PAYLOAD,2023-02-26 04:40:03,15.08847126,0.0001229,53.216,20.8694,120.9226,239.1888,0.00053468,8.233e-05,0.0,0 STARLINK-3702,1 52100U 22029N   23057.19449059  .00008233  00000-0  53468-3 0  9996,2 52100  53.2160  20.8694 0001229 120.9226 239.1888 15.08847126 53461,6917.859,95.437,540.574,538.873,0.0
52100.0,STARLINK-3702,PAYLOAD,2023-02-26 07:50:50,15.08859147,0.0001091,53.2164,20.2719,107.511,252.6001,0.0010373,0.00016268,0.0,0 STARLINK-3702,1 52100U 22029N   23057.32696814  .00016268  00000-0  10373-2 0  9998,2 52100  53.2164  20.2719 0001091 107.5110 252.6001 15.08859147 53482,6917.822,95.436,540.442,538.932,0.0
52100.0,STARLINK-3702,PAYLOAD,2023-02-26 22:09:18,15.08846725,0.0002122,53.217,17.5968,116.6349,243.486,0.00057884,8.938e-05,0.0,0 STARLINK-3702,1 52100U 22029N   23057.92313076  .00008938  00000-0  57884-3 0  9994,2 52100  53.2170  17.5968 0002122 116.6349 243.4860 15.08846725 53574,6917.86,95.437,541.193,538.257,0.0
52100.0,STARLINK-3702,PAYLOAD,2023-02-27 04:30:50,15.08854878,0.0001215,53.2163,16.4092,107.1787,252.9338,0.00055982,8.636e-05,0.0,0 STARLINK-3702,1 52100U 22029N   23058.18808820  .00008636  00000-0  55982-3 0  9991,2 52100  53.2163  16.4092 0001215 107.1787 252.9338 15.08854878 53613,6917.835,95.437,540.54,538.859,0.0
52100.0,STARLINK-3702,PAYLOAD,2023-02-28 05:56:59,15.08877128,0.0001013,53.2161,11.6478,113.1826,246.9272,0.0008188,0.0001278,0.0,0 STARLINK-3702,1 52100U 22029N   23059.24791486  .00012780  00000-0  81880-3 0  9999,2 52100  53.2161  11.6478 0001013 113.1826 246.9272 15.08877128 53773,6917.767,95.435,540.333,538.931,0.0
52100.0,STARLINK-3702,PAYLOAD,2023-03-01 04:12:26,15.08814837,0.0001437,53.2159,7.4863,90.8638,269.2519,-0.00032265,-5.416e-05,0.0,0 STARLINK-3702,1 52100U 22029N   23060.17530624 -.00005416  00000-0 -32265-3 0  9991,2 52100  53.2159   7.4863 0001437  90.8638 269.2519 15.08814837 53919,6917.957,95.439,540.816,538.828,0.0
52100.0,STARLINK-3702,PAYLOAD,2023-03-01 08:58:35,15.08821762,0.0001366,53.2155,6.5937,91.4688,268.646,-0.00014175,-2.542e-05,0.0,0 STARLINK-3702,1 52100U 22029N   23060.37402490 -.00002542  00000-0 -14175-3 0  9999,2 52100  53.2155   6.5937 0001366  91.4688 268.6460 15.08821762 53946,6917.936,95.439,540.746,538.856,0.0
52100.0,STARLINK-3702,PAYLOAD,2023-03-02 02:27:49,15.08853421,0.0001373,53.2157,3.3228,97.2605,262.8543,0.00049743,7.64e-05,0.0,0 STARLINK-3702,1 52100U 22029N   23061.10265478  .00007640  00000-0  49743-3 0  9995,2 52100  53.2157   3.3228 0001373  97.2605 262.8543 15.08853421 54055,6917.839,95.437,540.654,538.755,0.0
52100.0,STARLINK-3702,PAYLOAD,2023-03-02 07:13:58,15.08864188,0.0001549,53.2157,2.4301,98.7846,261.3322,0.00075364,0.00011734,0.0,0 STARLINK-3702,1 52100U 22029N   23061.30137100  .00011734  00000-0  75364-3 0  9994,2 52100  53.2157   2.4301 0001549  98.7846 261.3322 15.08864188 54089,6917.806,95.436,540.743,538.6,0.0
52100.0,STARLINK-3702,PAYLOAD,2023-03-03 07:04:45,15.08892842,0.0001681,53.2161,357.9695,86.1929,273.9255,0.0012379,0.00019497,0.0,0 STARLINK-3702,1 52100U 22029N   23062.29496639  .00019497  00000-0  12379-2 0  9998,2 52100  53.2161 357.9695 0001681  86.1929 273.9255 15.08892842 54237,6917.719,95.434,540.747,538.421,0.0
52100.0,STARLINK-3702,PAYLOAD,2023-03-03 21:23:13,15.08870104,0.0001565,53.2162,355.2925,100.5793,259.5375,0.0014042,0.00022149,0.0,0 STARLINK-3702,1 52100U 22029N   23062.89112404  .00022149  00000-0  14042-2 0  9996,2 52100  53.2162 355.2925 0001565 100.5793 259.5375 15.08870104 54326,6917.788,95.436,540.736,538.571,0.0
52100.0,STARLINK-3702,PAYLOAD,2023-03-04 05:20:07,15.08916032,0.0001081,53.2161,353.8063,88.2156,271.896,0.0040967,0.00065655,0.0,0 STARLINK-3702,1 52100U 22029N   23063.22231358  .00065655  00000-0  40967-2 0  9998,2 52100  53.2161 353.8063 0001081  88.2156 271.8960 15.08916032 54373,6917.648,95.433,540.261,538.765,0.0
52100.0,STARLINK-3702,PAYLOAD,2023-03-04 19:38:37,15.08844274,0.000142,53.2162,351.1306,86.1142,274.0012,0.0041436,0.00066286,0.0,0 STARLINK-3702,1 52100U 22029N   23063.81848686  .00066286  00000-0  41436-2 0  9994,2 52100  53.2162 351.1306 0001420  86.1142 274.0012 15.08844274 54465,6917.867,95.437,540.715,538.75,0.0
52100.0,STARLINK-3702,PAYLOAD,2023-03-05 02:00:10,15.08821834,0.0001336,53.2162,349.9408,52.8549,307.2565,0.003462,0.00055214,0.0,0 STARLINK-3702,1 52100U 22029N   23064.08345297  .00055214  00000-0  34620-2 0  9990,2 52100  53.2162 349.9408 0001336  52.8549 307.2565 15.08821834 54504,6917.936,95.439,540.725,538.877,0.0
52100.0,STARLINK-3702,PAYLOAD,2023-03-05 22:40:11,15.08866048,0.0001331,53.2156,346.0755,51.842,308.2692,0.0025207,0.00040086,0.0,0 STARLINK-3702,1 52100U 22029N   23064.94457808  .00040086  00000-0  25207-2 0  9999,2 52100  53.2156 346.0755 0001331  51.8420 308.2692 15.08866048 54634,6917.801,95.436,540.587,538.745,0.0
52100.0,STARLINK-3702,PAYLOAD,2023-03-06 17:44:49,15.08834074,0.0002449,53.2164,342.506,73.5393,286.5868,0.0010479,0.00016426,0.0,0 STARLINK-3702,1 52100U 22029N   23065.73946452  .00016426  00000-0  10479-2 0  9991,2 52100  53.2164 342.5060 0002449  73.5393 286.5868 15.08834074 54754,6917.899,95.438,541.458,538.069,0.0
52100.0,STARLINK-3702,PAYLOAD,2023-03-07 03:17:08,15.08850133,0.0001598,53.2153,340.7228,75.8215,284.2954,0.0009674,0.00015146,0.0,0 STARLINK-3702,1 52100U 22029N   23066.13690124  .00015146  00000-0  96740-3 0  9992,2 52100  53.2153 340.7228 0001598  75.8215 284.2954 15.08850133 54812,6917.849,95.437,540.82,538.609,0.0
52100.0,STARLINK-3702,PAYLOAD,2023-03-08 03:07:54,15.08881086,0.000161,53.2156,336.2624,88.6782,271.4395,0.001569,0.00024799,0.0,0 STARLINK-3702,1 52100U 22029N   23067.13049710  .00024799  00000-0  15690-2 0  9990,2 52100  53.2156 336.2624 0001610  88.6782 271.4395 15.08881086 54965,6917.755,95.435,540.734,538.506,0.0
52100.0,STARLINK-3702,PAYLOAD,2023-03-08 17:26:23,15.08833413,0.0002461,53.2145,333.5839,88.9259,271.2015,0.00042582,6.494e-05,0.0,0 STARLINK-3702,1 52100U 22029N   23067.72666611  .00006494  00000-0  42582-3 0  9993,2 52100  53.2145 333.5839 0002461  88.9259 271.2015 15.08833413 55057,6917.901,95.438,541.468,538.063,0.0
52100.0,STARLINK-3702,PAYLOAD,2023-03-08 23:47:56,15.08843154,0.0002327,53.2146,332.3939,94.4064,265.7194,0.0010682,0.00016755,0.0,0 STARLINK-3702,1 52100U 22029N   23067.99162730  .00016755  00000-0  10682-2 0  9991,2 52100  53.2146 332.3939 0002327  94.4064 265.7194 15.08843154 55096,6917.871,95.437,541.346,538.126,0.0
52100.0,STARLINK-3702,PAYLOAD,2023-03-09 17:17:11,15.08862467,0.0002072,53.2141,329.1292,65.8375,294.2833,0.0016028,0.00025329,0.0,0 STARLINK-3702,1 52100U 22029N   23068.72026757  .00025329  00000-0  16028-2 0  9998,2 52100  53.2141 329.1292 0002072  65.8375 294.2833 15.08862467 55209,6917.812,95.436,541.11,538.243,0.0
52100.0,STARLINK-3702,PAYLOAD,2023-03-09 22:03:20,15.08868807,0.0002039,53.2151,328.2377,63.182,296.938,0.001462,0.00023075,0.0,0 STARLINK-3702,1 52100U 22029N   23068.91898437  .00023075  00000-0  14620-2 0  9993,2 52100  53.2151 328.2377 0002039  63.1820 296.9380 15.08868807 55236,6917.792,95.436,541.068,538.247,0.0
52100.0,STARLINK-3702,PAYLOAD,2023-03-10 10:46:24,15.08872784,0.0001517,53.2158,325.855,76.493,283.6231,0.0012509,0.00019694,0.0,0 STARLINK-3702,1 52100U 22029N   23069.44889695  .00019694  00000-0  12509-2 0  9994,2 52100  53.2158 325.8550 0001517  76.4930 283.6231 15.08872784 55314,6917.78,95.435,540.695,538.596,0.0
52100.0,STARLINK-3702,PAYLOAD,2023-03-10 17:07:58,15.08841748,0.0003122,53.2148,324.6667,85.2406,274.8943,0.00070282,0.00010916,0.0,0 STARLINK-3702,1 52100U 22029N   23069.71386675  .00010916  00000-0  70282-3 0  9995,2 52100  53.2148 324.6667 0003122  85.2406 274.8943 15.08841748 55351,6917.875,95.437,541.9,537.58,0.0
